QIANFAN-41              
1 62242U 24232F   25344.24387803  .00000145  00000+0  20639-3 0  9994
2 62242  89.0028  41.4490 0013964 190.5135 169.5726 13.50977760 98912
QIANFAN-42              
1 62243U 24232G   25344.24392437  .00000619  00000+0  26080-3 0  9996
2 62243  89.0018  37.6423 0017333  93.6641 266.6534 14.24484083101019
QIANFAN-43              
1 62244U 24232H   25344.23971134  .00000157  00000+0  22430-3 0  9995
2 62244  89.0033  41.5147 0015287 196.5686 163.4967 13.50976669 67527
QIANFAN-44              
1 62245U 24232J   25344.22742936  .00000141  00000+0  19950-3 0  9997
2 62245  89.0031  41.3267 0013614 192.6705 167.4106 13.50978895 98995
QIANFAN-45              
1 62246U 24232K   25344.26853485  .00000151  00000+0  21606-3 0  9996
2 62246  89.0035  41.4690 0014288 192.5751 167.5046 13.50978451 98924
QIANFAN-46              
1 62247U 24232L   25344.21917241  .00000136  00000+0  19227-3 0  9992
2 62247  89.0031  41.5430 0014138 198.3157 161.7487 13.50980935 98871
QIANFAN-47              
1 62248U 24232M   25344.22330984  .00000137  00000+0  19318-3 0  9999
2 62248  89.0027  41.4757 0014593 197.6601 162.4045 13.50976951 98904
QIANFAN-48              
1 62249U 24232N   25344.26032634  .00000145  00000+0  20670-3 0  9997
2 62249  89.0030  41.4737 0016750 201.2067 158.8392 13.50978765 98912
